[{"OBJECT_NAME":"GEISAT PRECURSOR","OBJECT_ID":"2023-084C","EPOCH":"2026-03-09T22:20:25.833120","MEAN_MOTION":15.33054389,"ECCENTRICITY":0.00051675,"INCLINATION":97.6055,"RA_OF_ASC_NODE":206.8263,"ARG_OF_PERICENTER":345.1842,"MEAN_ANOMALY":14.9247,"EPHEMERIS_TYPE":0,"CLASSIFICATION_TYPE":"U","NORAD_CAT_ID":56934,"ELEMENT_SET_NO":999,"REV_AT_EPOCH":15231,"BSTAR":0.00033857167,"MEAN_MOTION_DOT":0.00010736,"MEAN_MOTION_DDOT":0},{"OBJECT_NAME":"STARLINK-36059","OBJECT_ID":"2025-283AC","EPOCH":"2026-03-09T03:48:18.880704","MEAN_MOTION":15.30185584,"ECCENTRICITY":0.00010925,"INCLINATION":53.1616,"RA_OF_ASC_NODE":26.5714,"ARG_OF_PERICENTER":90.495,"MEAN_ANOMALY":269.6176,"EPHEMERIS_TYPE":0,"CLASSIFICATION_TYPE":"U","NORAD_CAT_ID":66904,"ELEMENT_SET_NO":999,"REV_AT_EPOCH":1576,"BSTAR":0.0010032808,"MEAN_MOTION_DOT":0.0002946,"MEAN_MOTION_DDOT":0}]
